[{"OBJECT_NAME":"STARLINK-34726","OBJECT_ID":"2025-158D","EPOCH":"2026-03-09T14:14:40.889184","MEAN_MOTION":15.05643035,"ECCENTRICITY":0.000209,"INCLINATION":97.6014,"RA_OF_ASC_NODE":294.0286,"ARG_OF_PERICENTER":70.5992,"MEAN_ANOMALY":289.5461,"EPHEMERIS_TYPE":0,"CLASSIFICATION_TYPE":"U","NORAD_CAT_ID":64935,"ELEMENT_SET_NO":999,"REV_AT_EPOCH":3534,"BSTAR":0.0007365,"MEAN_MOTION_DOT":0.0001058,"MEAN_MOTION_DDOT":0},{"OBJECT_NAME":"CZ-4B DEB","OBJECT_ID":"2008-053J","EPOCH":"2026-03-09T11:59:22.469568","MEAN_MOTION":15.1637526,"ECCENTRICITY":0.00601661,"INCLINATION":97.7872,"RA_OF_ASC_NODE":170.5072,"ARG_OF_PERICENTER":304.792,"MEAN_ANOMALY":54.7659,"EPHEMERIS_TYPE":0,"CLASSIFICATION_TYPE":"U","NORAD_CAT_ID":35573,"ELEMENT_SET_NO":999,"REV_AT_EPOCH":91868,"BSTAR":0.0017688276,"MEAN_MOTION_DOT":0.00036031,"MEAN_MOTION_DDOT":0}]
